{
    "links": {
        "self": "http://www.neowsapp.com/rest/v1/neo/3744990?api_key=iIulBulltgU6a56xZRHN4H3l9WmuAYTsLGpBGhQ2"
    },
    "id": "3744990",
    "neo_reference_id": "3744990",
    "name": "(2016 DX21)",
    "designation": "2016 DX21",
    "nasa_jpl_url": "http://ssd.jpl.nasa.gov/sbdb.cgi?sstr=3744990",
    "absolute_magnitude_h": 24.3,
    "estimated_diameter": {
        "kilometers": {
            "estimated_diameter_min": 0.0366906138,
            "estimated_diameter_max": 0.0820427065
        },
        "meters": {
            "estimated_diameter_min": 36.6906137531,
            "estimated_diameter_max": 82.0427064882
        },
        "miles": {
            "estimated_diameter_min": 0.0227984834,
            "estimated_diameter_max": 0.0509789586
        },
        "feet": {
            "estimated_diameter_min": 120.3760332259,
            "estimated_diameter_max": 269.1689931548
        }
    },
    "is_potentially_hazardous_asteroid": false,
    "close_approach_data": [
        {
            "close_approach_date": "2016-02-23",
            "close_approach_date_full": "2016-Feb-23 16:49",
            "epoch_date_close_approach": 1456246140000,
            "relative_velocity": {
                "kilometers_per_second": "13.6423699412",
                "kilometers_per_hour": "49112.5317884294",
                "miles_per_hour": "30516.6173215383"
            },
            "miss_distance": {
                "astronomical": "0.0727479848",
                "lunar": "28.2989660872",
                "kilometers": "10882943.572872376",
                "miles": "6762347.5619597488"
            },
            "orbiting_body": "Earth"
        }
    ],
    "orbital_data": {
        "orbit_id": "5",
        "orbit_determination_date": "2017-04-06 08:27:59",
        "first_observation_date": "2016-02-29",
        "last_observation_date": "2016-03-06",
        "data_arc_in_days": 6,
        "observations_used": 23,
        "orbit_uncertainty": "8",
        "minimum_orbit_intersection": ".0724618",
        "jupiter_tisserand_invariant": "5.073",
        "epoch_osculation": "2457449.5",
        "eccentricity": ".1550867347087233",
        "semi_major_axis": "1.237722089077592",
        "inclination": "25.63213424488712",
        "ascending_node_longitude": "155.132116112964",
        "orbital_period": "502.9596433439935",
        "perihelion_distance": "1.045767811805689",
        "perihelion_argument": "331.9146405596948",
        "aphelion_distance": "1.429676366349495",
        "perihelion_time": "2457414.987137410720",
        "mean_anomaly": "24.70303670794341",
        "mean_motion": ".715763192463102",
        "equinox": "J2000",
        "orbit_class": {
            "orbit_class_type": "AMO",
            "orbit_class_description": "Near-Earth asteroid orbits similar to that of 1221 Amor",
            "orbit_class_range": "1.017 AU < q (perihelion) < 1.3 AU"
        }
    },
    "is_sentry_object": false
}